start=new Date('2022-06-11T00:00:00.000Z').valueOf();
sats=[{"OBJECT_TYPE":"PAYLOAD","TLE_LINE1":"1 50815U 22001N   22161.85997048 -.00000659  00000-0 -23293-4 0  9991","OBJECT_NAME":"STARLINK-3234","ECCENTRICITY":"0.00022930","COUNTRY_CODE":"US","BSTAR":"-0.00002329300000","LAUNCH_DATE":"2022-01-06","PERIOD":"95.438","NORAD_CAT_ID":"50815","RA_OF_ASC_NODE":"189.5300","OBJECT_ID":"2022-001N","MEAN_MOTION":"15.08828732","RCS_SIZE":"LARGE","DECAY_DATE":null,"EPOCH":"2022-06-10T20:38:21.449472","REV_AT_EPOCH":"2391","TIME_SYSTEM":"UTC","CENTER_NAME":"EARTH","ARG_OF_PERICENTER":"40.4477","GP_ID":"205865970","CLASSIFICATION_TYPE":"U","MEAN_MOTION_DDOT":"0.0000000000000","APOAPSIS":"541.366","MEAN_ANOMALY":"319.6685","SITE":"AFETR","PERIAPSIS":"538.194","REF_FRAME":"TEME","TLE_LINE2":"2 50815  53.2170 189.5300 0002293  40.4477 319.6685 15.08828732 23914","MEAN_MOTION_DOT":"-0.00000659","FILE":"3490466","ELEMENT_SET_NO":"999","EPHEMERIS_TYPE":"0","SEMIMAJOR_AXIS":"6917.915","INCLINATION":"53.2170","MEAN_ELEMENT_THEORY":"SGP4"},{"EPHEMERIS_TYPE":"0","SEMIMAJOR_AXIS":"6917.901","MEAN_ELEMENT_THEORY":"SGP4","INCLINATION":"53.2165","PERIAPSIS":"538.214","REF_FRAME":"TEME","TLE_LINE2":"2 50816  53.2165 191.7685 0002243  43.3037 316.8131 15.08833205 23836","MEAN_MOTION_DOT":"-0.00000870","FILE":"3489795","ELEMENT_SET_NO":"999","APOAPSIS":"541.318","MEAN_MOTION_DDOT":"0.0000000000000","SITE":"AFETR","MEAN_ANOMALY":"316.8131","ARG_OF_PERICENTER":"43.3037","GP_ID":"205823984","CLASSIFICATION_TYPE":"U","RCS_SIZE":"LARGE","DECAY_DATE":null,"EPOCH":"2022-06-10T08:48:15.062400","REV_AT_EPOCH":"2383","CENTER_NAME":"EARTH","TIME_SYSTEM":"UTC","RA_OF_ASC_NODE":"191.7685","OBJECT_ID":"2022-001P","MEAN_MOTION":"15.08833205","BSTAR":"-0.00003653300000","LAUNCH_DATE":"2022-01-06","PERIOD":"95.438","NORAD_CAT_ID":"50816","OBJECT_TYPE":"PAYLOAD","TLE_LINE1":"1 50816U 22001P   22161.36684100 -.00000870  00000-0 -36533-4 0  9996","ECCENTRICITY":"0.00022430","OBJECT_NAME":"STARLINK-3342","COUNTRY_CODE":"US"},{"OBJECT_ID":"2022-001Q","MEAN_MOTION":"15.08829927","RA_OF_ASC_NODE":"189.8517","EPOCH":"2022-06-10T18:57:40.300992","DECAY_DATE":null,"REV_AT_EPOCH":"2390","CENTER_NAME":"EARTH","TIME_SYSTEM":"UTC","RCS_SIZE":"LARGE","TLE_LINE1":"1 50817U 22001Q   22161.79004978 -.00000622  00000-0 -20972-4 0  9998","OBJECT_NAME":"STARLINK-3341","ECCENTRICITY":"0.00023880","COUNTRY_CODE":"US","OBJECT_TYPE":"PAYLOAD","NORAD_CAT_ID":"50817","BSTAR":"-0.00002097200000","LAUNCH_DATE":"2022-01-06","PERIOD":"95.438","FILE":"3490466","ELEMENT_SET_NO":"999","PERIAPSIS":"538.124","REF_FRAME":"TEME","TLE_LINE2":"2 50817  53.2169 189.8517 0002388  38.0576 322.0585 15.08829927 23908","MEAN_MOTION_DOT":"-0.00000622","EPHEMERIS_TYPE":"0","SEMIMAJOR_AXIS":"6917.911","INCLINATION":"53.2169","MEAN_ELEMENT_THEORY":"SGP4","GP_ID":"205864968","CLASSIFICATION_TYPE":"U","ARG_OF_PERICENTER":"38.0576","MEAN_MOTION_DDOT":"0.0000000000000","APOAPSIS":"541.428","SITE":"AFETR","MEAN_ANOMALY":"322.0585"},{"OBJECT_TYPE":"PAYLOAD","OBJECT_NAME":"STARLINK-3336","TLE_LINE1":"1 50818U 22001R   22161.77163812 -.00000790  00000-0 -31532-4 0  9990","ECCENTRICITY":"0.00028570","COUNTRY_CODE":"US","BSTAR":"-0.00003153200000","PERIOD":"95.438","LAUNCH_DATE":"2022-01-06","NORAD_CAT_ID":"50818","RA_OF_ASC_NODE":"189.9424","OBJECT_ID":"2022-001R","MEAN_MOTION":"15.08837412","RCS_SIZE":"LARGE","EPOCH":"2022-06-10T18:31:09.533568","DECAY_DATE":null,"REV_AT_EPOCH":"2389","TIME_SYSTEM":"UTC","CENTER_NAME":"EARTH","ARG_OF_PERICENTER":"33.5129","GP_ID":"205865220","CLASSIFICATION_TYPE":"U","APOAPSIS":"541.730","MEAN_MOTION_DDOT":"0.0000000000000","MEAN_ANOMALY":"326.6043","SITE":"AFETR","REF_FRAME":"TEME","PERIAPSIS":"537.777","MEAN_MOTION_DOT":"-0.00000790","TLE_LINE2":"2 50818  53.2153 189.9424 0002857  33.5129 326.6043 15.08837412 23890","ELEMENT_SET_NO":"999","FILE":"3490466","SEMIMAJOR_AXIS":"6917.888","EPHEMERIS_TYPE":"0","MEAN_ELEMENT_THEORY":"SGP4","INCLINATION":"53.2153"},{"BSTAR":"-0.00001799500000","PERIOD":"95.438","LAUNCH_DATE":"2022-01-06","NORAD_CAT_ID":"50819","OBJECT_TYPE":"PAYLOAD","TLE_LINE1":"1 50819U 22001S   22161.77899961 -.00000575  00000-0 -17995-4 0  9990","ECCENTRICITY":"0.00019600","OBJECT_NAME":"STARLINK-3327","COUNTRY_CODE":"US","RCS_SIZE":"LARGE","EPOCH":"2022-06-10T18:41:45.566304","DECAY_DATE":null,"REV_AT_EPOCH":"2390","CENTER_NAME":"EARTH","TIME_SYSTEM":"UTC","RA_OF_ASC_NODE":"189.8938","OBJECT_ID":"2022-001S","MEAN_MOTION":"15.08837558","MEAN_MOTION_DDOT":"0.0000000000000","APOAPSIS":"541.109","MEAN_ANOMALY":"308.6659","SITE":"AFETR","ARG_OF_PERICENTER":"51.4509","GP_ID":"205865471","CLASSIFICATION_TYPE":"U","SEMIMAJOR_AXIS":"6917.888","EPHEMERIS_TYPE":"0","INCLINATION":"53.2177","MEAN_ELEMENT_THEORY":"SGP4","REF_FRAME":"TEME","PERIAPSIS":"538.397","MEAN_MOTION_DOT":"-0.00000575","TLE_LINE2":"2 50819  53.2177 189.8938 0001960  51.4509 308.6659 15.08837558 23907","ELEMENT_SET_NO":"999","FILE":"3490466"},{"ARG_OF_PERICENTER":"40.2789","GP_ID":"205823485","CLASSIFICATION_TYPE":"U","MEAN_MOTION_DDOT":"0.0000000000000","APOAPSIS":"541.339","MEAN_ANOMALY":"319.8374","SITE":"AFETR","REF_FRAME":"TEME","PERIAPSIS":"538.140","TLE_LINE2":"2 50820  53.2167 191.1900 0002312  40.2789 319.8374 15.08841876 23851","MEAN_MOTION_DOT":"-0.00000869","FILE":"3489795","ELEMENT_SET_NO":"999","EPHEMERIS_TYPE":"0","SEMIMAJOR_AXIS":"6917.875","INCLINATION":"53.2167","MEAN_ELEMENT_THEORY":"SGP4","OBJECT_TYPE":"PAYLOAD","TLE_LINE1":"1 50820U 22001T   22161.49564015 -.00000869  00000-0 -36464-4 0  9998","OBJECT_NAME":"STARLINK-3339","ECCENTRICITY":"0.00023120","COUNTRY_CODE":"US","BSTAR":"-0.00003646400000","LAUNCH_DATE":"2022-01-06","PERIOD":"95.437","NORAD_CAT_ID":"50820","RA_OF_ASC_NODE":"191.1900","OBJECT_ID":"2022-001T","MEAN_MOTION":"15.08841876","RCS_SIZE":"LARGE","EPOCH":"2022-06-10T11:53:43.308960","DECAY_DATE":null,"REV_AT_EPOCH":"2385","TIME_SYSTEM":"UTC","CENTER_NAME":"EARTH"},{"BSTAR":"0.00008860500000","LAUNCH_DATE":"2022-01-06","PERIOD":"95.437","NORAD_CAT_ID":"50821","OBJECT_TYPE":"PAYLOAD","TLE_LINE1":"1 50821U 22001U   22161.81210815  .00001122  00000-0  88605-4 0  9996","OBJECT_NAME":"STARLINK-3346","ECCENTRICITY":"0.00022760","COUNTRY_CODE":"US","RCS_SIZE":"LARGE","DECAY_DATE":null,"EPOCH":"2022-06-10T19:29:26.144160","REV_AT_EPOCH":"2390","CENTER_NAME":"EARTH","TIME_SYSTEM":"UTC","RA_OF_ASC_NODE":"189.7741","OBJECT_ID":"2022-001U","MEAN_MOTION":"15.08843204","APOAPSIS":"541.310","MEAN_MOTION_DDOT":"0.0000000000000","SITE":"AFETR","MEAN_ANOMALY":"320.2492","ARG_OF_PERICENTER":"39.8667","GP_ID":"205864469","CLASSIFICATION_TYPE":"U","EPHEMERIS_TYPE":"0","SEMIMAJOR_AXIS":"6917.871","MEAN_ELEMENT_THEORY":"SGP4","INCLINATION":"53.2178","REF_FRAME":"TEME","PERIAPSIS":"538.161","TLE_LINE2":"2 50821  53.2178 189.7741 0002276  39.8667 320.2492 15.08843204 23908","MEAN_MOTION_DOT":"0.00001122","FILE":"3490466","ELEMENT_SET_NO":"999"},{"BSTAR":"-0.00002274300000","PERIOD":"95.437","LAUNCH_DATE":"2022-01-06","NORAD_CAT_ID":"50822","OBJECT_TYPE":"PAYLOAD","TLE_LINE1":"1 50822U 22001V   22161.48828499 -.00000650  00000-0 -22743-4 0  9991","OBJECT_NAME":"STARLINK-3343","ECCENTRICITY":"0.00022770","COUNTRY_CODE":"US","RCS_SIZE":"LARGE","EPOCH":"2022-06-10T11:43:07.823136","DECAY_DATE":null,"REV_AT_EPOCH":"2385","TIME_SYSTEM":"UTC","CENTER_NAME":"EARTH","RA_OF_ASC_NODE":"191.2271","OBJECT_ID":"2022-001V","MEAN_MOTION":"15.08842863","MEAN_MOTION_DDOT":"0.0000000000000","APOAPSIS":"541.312","MEAN_ANOMALY":"316.7419","SITE":"AFETR","ARG_OF_PERICENTER":"43.3753","GP_ID":"205824986","CLASSIFICATION_TYPE":"U","SEMIMAJOR_AXIS":"6917.872","EPHEMERIS_TYPE":"0","INCLINATION":"53.2178","MEAN_ELEMENT_THEORY":"SGP4","REF_FRAME":"TEME","PERIAPSIS":"538.161","MEAN_MOTION_DOT":"-0.00000650","TLE_LINE2":"2 50822  53.2178 191.2271 0002277  43.3753 316.7419 15.08842863 23855","ELEMENT_SET_NO":"999","FILE":"3489795"},{"REV_AT_EPOCH":"2385","TIME_SYSTEM":"UTC","CENTER_NAME":"EARTH","EPOCH":"2022-06-10T10:55:25.263264","DECAY_DATE":null,"RCS_SIZE":"LARGE","MEAN_MOTION":"15.08835091","OBJECT_ID":"2022-001W","RA_OF_ASC_NODE":"191.3496","NORAD_CAT_ID":"50823","PERIOD":"95.438","LAUNCH_DATE":"2022-01-06","BSTAR":"0.00006870300000","COUNTRY_CODE":"US","OBJECT_NAME":"STARLINK-3334","TLE_LINE1":"1 50823U 22001W   22161.45515351  .00000805  00000-0  68703-4 0  9995","ECCENTRICITY":"0.00026610","OBJECT_TYPE":"PAYLOAD","MEAN_ELEMENT_THEORY":"SGP4","INCLINATION":"53.2159","SEMIMAJOR_AXIS":"6917.895","EPHEMERIS_TYPE":"0","ELEMENT_SET_NO":"999","FILE":"3489795","MEAN_MOTION_DOT":"0.00000805","TLE_LINE2":"2 50823  53.2159 191.3496 0002661  38.8565 321.2618 15.08835091 23859","REF_FRAME":"TEME","PERIAPSIS":"537.920","SITE":"AFETR","MEAN_ANOMALY":"321.2618","MEAN_MOTION_DDOT":"0.0000000000000","APOAPSIS":"541.601","CLASSIFICATION_TYPE":"U","GP_ID":"205825237","ARG_OF_PERICENTER":"38.8565"},{"MEAN_MOTION_DOT":"-0.00000715","TLE_LINE2":"2 50824  53.2175 189.7545 0002451  44.9739 315.1452 15.08834007 23902","PERIAPSIS":"538.068","REF_FRAME":"TEME","ELEMENT_SET_NO":"999","FILE":"3490466","MEAN_ELEMENT_THEORY":"SGP4","INCLINATION":"53.2175","SEMIMAJOR_AXIS":"6917.899","EPHEMERIS_TYPE":"0","ARG_OF_PERICENTER":"44.9739","CLASSIFICATION_TYPE":"U","GP_ID":"205864719","SITE":"AFETR","MEAN_ANOMALY":"315.1452","MEAN_MOTION_DDOT":"0.0000000000000","APOAPSIS":"541.459","RA_OF_ASC_NODE":"189.7545","MEAN_MOTION":"15.08834007","OBJECT_ID":"2022-001X","RCS_SIZE":"LARGE","REV_AT_EPOCH":"2390","TIME_SYSTEM":"UTC","CENTER_NAME":"EARTH","EPOCH":"2022-06-10T19:34:45.323904","DECAY_DATE":null,"OBJECT_TYPE":"PAYLOAD","COUNTRY_CODE":"US","TLE_LINE1":"1 50824U 22001X   22161.81580236 -.00000715  00000-0 -26783-4 0  9994","ECCENTRICITY":"0.00024510","OBJECT_NAME":"STARLINK-3340","PERIOD":"95.438","LAUNCH_DATE":"2022-01-06","BSTAR":"-0.00002678300000","NORAD_CAT_ID":"50824"}];
